TYVAK-182A              
1 48271U 21034D   26134.64364093  .00003893  00000+0  27243-3 0  9996
2 48271  97.5747 194.1479 0007333  88.2619 271.9448 15.05830310274787
CSS (TIANHE)            
1 48274U 21035A   26133.47815923  .00012315  00000+0  13972-3 0  9996
2 48274  41.4670 173.0841 0004121 296.9881  63.0537 15.62173368287748
TYVAK-0130              
1 48606U 21041BF  26134.54131350  .00004824  00000+0  19189-3 0  9998
2 48606  52.9933 182.2797 0011154  66.3949 293.8218 15.27081534275241
HAIYANG-2D              
1 48621U 21043A   26134.96459417 -.00000136  00000+0 -49905-4 0  9994
2 48621  66.0007  27.4135 0011416 273.2177  86.7585 13.83372397251953
TYVAK-0173              
1 48892U 21059P   26134.50166683  .00001105  00000+0  14403-3 0  9990
2 48892  96.0084 219.2332 0010506 136.1565 224.0488 14.81770388263254
MANDRAKE 2 ABLE         
1 48907U 21059AE  26134.95340783  .00014126  00000+0  22308-3 0  9991
2 48907  97.7041 322.2404 0006254 111.3677 248.8244 15.53604307271969
MANDRAKE 2 BAKER        
1 48908U 21059AF  26134.46470481  .00018899  00000+0  25524-3 0  9991
2 48908  97.7016 324.3616 0004923 111.0030 249.1752 15.57813415272045
PACE-1                  
1 48909U 21059AG  26134.07934270  .00058494  00000+0  40105-3 0  9997
2 48909  97.6799 328.5236 0002824  97.0987 263.0598 15.74559853272426
YAM-3                   
1 48915U 21059AN  26134.45692277  .00008193  00000+0  15980-3 0  9998
2 48915  97.6989 319.2308 0006661 113.7130 246.4819 15.47780179271775
FARADAY_PHOENIX         
1 48924U 21059AX  26134.40073198  .00077669  00000+0  62174-3 0  9999
2 48924  97.6857 328.8901 0005000 106.8479 253.3332 15.70815488272348
DEMO8 (TENZING)         
1 48951U 21059CA  26134.44211891  .00014692  00000+0  23123-3 0  9995
2 48951  97.7040 325.3274 0008281 107.9300 252.2856 15.53671657272064
NAPA-2                  
1 48963U 21059CN  26134.93969918  .00113392  00000+0  47247-3 0  9992
2 48963  97.6765 329.7375 0002050 119.2146 240.9329 15.85391315272527
FENGYUN 3E              
1 49008U 21062A   26134.94126374 -.00000225  00000+0 -85293-4 0  9995
2 49008  98.7499 138.7197 0001878 143.2160 216.9145 14.19900231251866
ISS (NAUKA)             
1 49044U 21066A   26134.65013167  .00004878  00000+0  95926-4 0  9992
2 49044  51.6311 106.1165 0007514  58.4526 301.7195 15.49215603566679
STARLINK-3100           
1 49144U 21082Q   26134.39324407 -.00001162  00000+0 -89564-4 0  9990
2 49144  69.9986 128.7839 0003780 265.4396  94.6331 14.98324935255828
CUTE                    
1 49263U 21088D   26134.68144901  .00111422  00000+0  62797-3 0  9996
2 49263  97.4199 231.1149 0001870 273.2985  86.8068 15.78865928257243
2021-091B               
1 49316U 21091B   26134.97912907  .00002113  00000+0  10588-3 0  9997
2 49316  97.4481 323.0642 0014003 150.3841 209.8189 15.18376308253940
SDGSAT 1                
1 49387U 21100A   26134.98229183  .00001560  00000+0  75954-4 0  9998
2 49387  97.2668 183.1615 0009534  57.0740 303.1411 15.19747788250872
TEIKYOSAT-4 (OORURI)    
1 49396U 21102B   26134.90861635  .00001259  00000+0  82487-4 0  9990
2 49396  97.3696 165.6848 0013393  53.1533 307.0922 15.09382704247702
Z-SAT                   
1 49399U 21102E   26134.91208998  .00002062  00000+0  10434-3 0  9996
2 49399  97.3358 171.2469 0016838   9.8603 350.2958 15.17996478248398
HIBARI                  
1 49400U 21102F   26134.09249264  .00007145  00000+0  24063-3 0  9999
2 49400  97.3271 180.3981 0010284 328.9237  31.1395 15.31018533248979
KOSEN-1                 
1 49402U 21102H   26134.58103965  .00004718  00000+0  18396-3 0  9997
2 49402  97.3217 177.3986 0012623 332.9506  27.1074 15.26351166248891
GLOBAL-14               
1 49469U 21106A   26134.38035778  .00016174  00000+0  29579-3 0  9992
2 49469  42.0029 131.7272 0014524 154.1099 206.0473 15.48940719252884
GAOFEN-3 02             
1 49495U 21109A   26134.95558530 -.00000065  00000+0 -65177-5 0  9993
2 49495  98.4099 143.5235 0004042  88.5420 271.6232 14.42212253235528
GLOBAL-12               
1 49772U 21115BA  26134.59946721  .00017952  00000+0  30309-3 0  9999
2 49772  53.1951 205.7892 0002375 335.3500  24.7397 15.51732027250680
GLOBAL-13               
1 49773U 21115BB  26134.49001804  .00013709  00000+0  29633-3 0  9997
2 49773  53.1976 214.6131 0003372  29.6241 330.4957 15.44821856250552
GLOBAL-17               
1 49949U 21120A   26134.67617223  .00016430  00000+0  28414-3 0  9996
2 49949  41.9953 248.7065 0012761  12.6986 347.4177 15.50544376249692
GLOBAL-16               
1 49950U 21120B   26134.71095903  .00015462  00000+0  28657-3 0  9991
2 49950  41.9960 251.6337 0011018   2.0666 358.0221 15.48635183249657
XW-3 (CAS-9)            
1 50466U 21131B   26134.94125308  .00000137  00000+0  56149-4 0  9996
2 50466  98.4960 227.5142 0003985 180.3989 179.7198 14.41323039230327
