OBJECT_NAME,OBJECT_ID,EPOCH,MEAN_MOTION,ECCENTRICITY,INCLINATION,RA_OF_ASC_NODE,ARG_OF_PERICENTER,MEAN_ANOMALY,EPHEMERIS_TYPE,CLASSIFICATION_TYPE,NORAD_CAT_ID,ELEMENT_SET_NO,REV_AT_EPOCH,BSTAR,MEAN_MOTION_DOT,MEAN_MOTION_DDOT
TYVAK-182A,2021-034D,2026-05-14T15:26:50.576352,15.05830310,.00073331,97.5747,194.1479,88.2619,271.9448,0,U,48271,999,27478,.27242724E-3,.3893E-4,0
CSS (TIANHE),2021-035A,2026-05-13T11:28:32.957472,15.62173368,.00041216,41.4670,173.0841,296.9881,63.0537,0,U,48274,999,28774,.13972158E-3,.12315E-3,0
TYVAK-0130,2021-041BF,2026-05-14T12:59:29.486400,15.27081534,.00111542,52.9933,182.2797,66.3949,293.8218,0,U,48606,999,27524,.19188809E-3,.4824E-4,0
HAIYANG-2D,2021-043A,2026-05-14T23:09:00.936288,13.83372397,.0011416,66.0007,27.4135,273.2177,86.7585,0,U,48621,999,25195,-.49905375E-4,-.136E-5,0
TYVAK-0173,2021-059P,2026-05-14T12:02:24.014112,14.81770388,.00105069,96.0084,219.2332,136.1565,224.0488,0,U,48892,999,26325,.1440341E-3,.1105E-4,0
MANDRAKE 2 ABLE,2021-059AE,2026-05-14T22:52:54.436512,15.53604307,.00062548,97.7041,322.2404,111.3677,248.8244,0,U,48907,999,27196,.22307664E-3,.14126E-3,0
MANDRAKE 2 BAKER,2021-059AF,2026-05-14T11:09:10.495584,15.57813415,.00049238,97.7016,324.3616,111.0030,249.1752,0,U,48908,999,27204,.2552433E-3,.18899E-3,0
PACE-1,2021-059AG,2026-05-14T01:54:15.209280,15.74559853,.00028249,97.6799,328.5236,97.0987,263.0598,0,U,48909,999,27242,.40105153E-3,.58494E-3,0
YAM-3,2021-059AN,2026-05-14T10:57:58.127328,15.47780179,.00066617,97.6989,319.2308,113.7130,246.4819,0,U,48915,999,27177,.15980173E-3,.8193E-4,0
FARADAY_PHOENIX,2021-059AX,2026-05-14T09:37:03.243072,15.70815488,.00050009,97.6857,328.8901,106.8479,253.3332,0,U,48924,999,27234,.62173924E-3,.77669E-3,0
DEMO8 (TENZING),2021-059CA,2026-05-14T10:36:39.073824,15.53671657,.00082817,97.7040,325.3274,107.9300,252.2856,0,U,48951,999,27206,.23123343E-3,.14692E-3,0
NAPA-2,2021-059CN,2026-05-14T22:33:10.009152,15.85391315,.00020506,97.6765,329.7375,119.2146,240.9329,0,U,48963,999,27252,.47246743E-3,.113392E-2,0
FENGYUN 3E,2021-062A,2026-05-14T22:35:25.187136,14.19900231,.00018781,98.7499,138.7197,143.2160,216.9145,0,U,49008,999,25186,-.8529265E-4,-.225E-5,0
ISS (NAUKA),2021-066A,2026-05-14T15:36:11.376288,15.49215603,.00075141,51.6311,106.1165,58.4526,301.7195,0,U,49044,999,56667,.95926049E-4,.4878E-4,0
STARLINK-3100,2021-082Q,2026-05-14T09:26:16.287648,14.98324935,.00037804,69.9986,128.7839,265.4396,94.6331,0,U,49144,999,25582,-.89563741E-4,-.1162E-4,0
CUTE,2021-088D,2026-05-14T16:21:17.194464,15.78865928,.00018708,97.4199,231.1149,273.2985,86.8068,0,U,49263,999,25724,.62796694E-3,.111422E-2,0
2021-091B,2021-091B,2026-05-14T23:29:56.751648,15.18376308,.00140039,97.4481,323.0642,150.3841,209.8189,0,U,49316,999,25394,.10587963E-3,.2113E-4,0
SDGSAT 1,2021-100A,2026-05-14T23:34:30.014112,15.19747788,.00095347,97.2668,183.1615,57.0740,303.1411,0,U,49387,999,25087,.75954063E-4,.156E-4,0
TEIKYOSAT-4 (OORURI),2021-102B,2026-05-14T21:48:24.452640,15.09382704,.00133938,97.3696,165.6848,53.1533,307.0922,0,U,49396,999,24770,.82487E-4,.1259E-4,0
Z-SAT,2021-102E,2026-05-14T21:53:24.574272,15.17996478,.00168387,97.3358,171.2469,9.8603,350.2958,0,U,49399,999,24839,.10434044E-3,.2062E-4,0
HIBARI,2021-102F,2026-05-14T02:13:11.364096,15.31018533,.00102845,97.3271,180.3981,328.9237,31.1395,0,U,49400,999,24897,.24062861E-3,.7145E-4,0
KOSEN-1,2021-102H,2026-05-14T13:56:41.825760,15.26351166,.00126233,97.3217,177.3986,332.9506,27.1074,0,U,49402,999,24889,.18396041E-3,.4718E-4,0
GLOBAL-14,2021-106A,2026-05-14T09:07:42.912192,15.48940719,.00145241,42.0029,131.7272,154.1099,206.0473,0,U,49469,999,25288,.29579288E-3,.16174E-3,0
GAOFEN-3 02,2021-109A,2026-05-14T22:56:02.569920,14.42212253,.00040421,98.4099,143.5235,88.5420,271.6232,0,U,49495,999,23552,-.6517732E-5,-.65E-6,0
GLOBAL-12,2021-115BA,2026-05-14T14:23:13.966944,15.51732027,.00023752,53.1951,205.7892,335.3500,24.7397,0,U,49772,999,25068,.30309279E-3,.17952E-3,0
GLOBAL-13,2021-115BB,2026-05-14T11:45:37.558656,15.44821856,.00033723,53.1976,214.6131,29.6241,330.4957,0,U,49773,999,25055,.29632803E-3,.13709E-3,0
GLOBAL-17,2021-120A,2026-05-14T16:13:41.280672,15.50544376,.00127614,41.9953,248.7065,12.6986,347.4177,0,U,49949,999,24969,.28414274E-3,.1643E-3,0
GLOBAL-16,2021-120B,2026-05-14T17:03:46.860192,15.48635183,.00110184,41.9960,251.6337,2.0666,358.0221,0,U,49950,999,24965,.28656594E-3,.15462E-3,0
XW-3 (CAS-9),2021-131B,2026-05-14T22:35:24.266112,14.41323039,.0003985,98.4960,227.5142,180.3989,179.7198,0,U,50466,999,23032,.56149265E-4,.137E-5,0
